[
  {
    "COMMENT": "GENERATED VIA SPACETRACK.ORG API",
    "ORIGINATOR": "18 SPCS",
    "NORAD_CAT_ID": "27421",
    "OBJECT_NAME": "SPOT 5",
    "OBJECT_TYPE": "PAYLOAD",
    "CLASSIFICATION_TYPE": "U",
    "INTLDES": "02021A",
    "EPOCH": "2023-06-21 10:34:54",
    "EPOCH_MICROSECONDS": "246432",
    "MEAN_MOTION": "14.52660163",
    "ECCENTRICITY": "0.0135033",
    "INCLINATION": "98.1392",
    "RA_OF_ASC_NODE": "235.3188",
    "ARG_OF_PERICENTER": "61.0414",
    "MEAN_ANOMALY": "300.4244",
    "EPHEMERIS_TYPE": "0",
    "ELEMENT_SET_NO": "999",
    "REV_AT_EPOCH": "10422",
    "BSTAR": "0.00011787",
    "MEAN_MOTION_DOT": "0.00000495",
    "MEAN_MOTION_DDOT": "0",
    "FILE": "3939133",
    "TLE_LINE0": "0 SPOT 5",
    "TLE_LINE1": "1 27421U 02021A   23172.44090563  .00000495  00000-0  11787-3 0  9992",
    "TLE_LINE2": "2 27421  98.1392 235.3188 0135033  61.0414 300.4244 14.52660163104221",
    "OBJECT_ID": "2002-021A",
    "OBJECT_NUMBER": "27421",
    "SEMIMAJOR_AXIS": "7095.110",
    "PERIOD": "99.128",
    "APOGEE": "812.783",
    "PERIGEE": "621.168",
    "DECAYED": "0"
  },
  {
    "COMMENT": "GENERATED VIA SPACETRACK.ORG API",
    "ORIGINATOR": "18 SPCS",
    "NORAD_CAT_ID": "27421",
    "OBJECT_NAME": "SPOT 5",
    "OBJECT_TYPE": "PAYLOAD",
    "CLASSIFICATION_TYPE": "U",
    "INTLDES": "02021A",
    "EPOCH": "2023-06-21 18:50:50",
    "EPOCH_MICROSECONDS": "118720",
    "MEAN_MOTION": "14.52660469",
    "ECCENTRICITY": "0.0135015",
    "INCLINATION": "98.1392",
    "RA_OF_ASC_NODE": "235.6531",
    "ARG_OF_PERICENTER": "59.9855",
    "MEAN_ANOMALY": "301.4659",
    "EPHEMERIS_TYPE": "0",
    "ELEMENT_SET_NO": "999",
    "REV_AT_EPOCH": "10431",
    "BSTAR": "0.00011359",
    "MEAN_MOTION_DOT": "0.00000475",
    "MEAN_MOTION_DDOT": "0",
    "FILE": "3939228",
    "TLE_LINE0": "0 SPOT 5",
    "TLE_LINE1": "1 27421U 02021A   23172.78530230  .00000475  00000-0  11359-3 0  9992",
    "TLE_LINE2": "2 27421  98.1392 235.6531 0135015  59.9855 301.4659 14.52660469104311",
    "OBJECT_ID": "2002-021A",
    "OBJECT_NUMBER": "27421",
    "SEMIMAJOR_AXIS": "7095.109",
    "PERIOD": "99.128",
    "APOGEE": "812.769",
    "PERIGEE": "621.180",
    "DECAYED": "0"
  },
  {
    "COMMENT": "GENERATED VIA SPACETRACK.ORG API",
    "ORIGINATOR": "18 SPCS",
    "NORAD_CAT_ID": "27421",
    "OBJECT_NAME": "SPOT 5",
    "OBJECT_TYPE": "PAYLOAD",
    "CLASSIFICATION_TYPE": "U",
    "INTLDES": "02021A",
    "EPOCH": "2023-06-22 03:06:45",
    "EPOCH_MICROSECONDS": "969408",
    "MEAN_MOTION": "14.52660826",
    "ECCENTRICITY": "0.0134989",
    "INCLINATION": "98.1392",
    "RA_OF_ASC_NODE": "235.9874",
    "ARG_OF_PERICENTER": "58.9296",
    "MEAN_ANOMALY": "302.5069",
    "EPHEMERIS_TYPE": "0",
    "ELEMENT_SET_NO": "999",
    "REV_AT_EPOCH": "10436",
    "BSTAR": "0.00011085",
    "MEAN_MOTION_DOT": "0.00000463",
    "MEAN_MOTION_DDOT": "0",
    "FILE": "3939576",
    "TLE_LINE0": "0 SPOT 5",
    "TLE_LINE1": "1 27421U 02021A   23173.12969872  .00000463  00000-0  11085-3 0  9992",
    "TLE_LINE2": "2 27421  98.1392 235.9874 0134989  58.9296 302.5069 14.52660826104360",
    "OBJECT_ID": "2002-021A",
    "OBJECT_NUMBER": "27421",
    "SEMIMAJOR_AXIS": "7095.108",
    "PERIOD": "99.128",
    "APOGEE": "812.749",
    "PERIGEE": "621.197",
    "DECAYED": "0"
  },
  {
    "COMMENT": "GENERATED VIA SPACETRACK.ORG API",
    "ORIGINATOR": "18 SPCS",
    "NORAD_CAT_ID": "27421",
    "OBJECT_NAME": "SPOT 5",
    "OBJECT_TYPE": "PAYLOAD",
    "CLASSIFICATION_TYPE": "U",
    "INTLDES": "02021A",
    "EPOCH": "2023-06-22 09:43:30",
    "EPOCH_MICROSECONDS": "641664",
    "MEAN_MOTION": "14.52661231",
    "ECCENTRICITY": "0.0134975",
    "INCLINATION": "98.1392",
    "RA_OF_ASC_NODE": "236.2549",
    "ARG_OF_PERICENTER": "58.0852",
    "MEAN_ANOMALY": "303.3391",
    "EPHEMERIS_TYPE": "0",
    "ELEMENT_SET_NO": "999",
    "REV_AT_EPOCH": "10440",
    "BSTAR": "0.00011453",
    "MEAN_MOTION_DOT": "0.0000048",
    "MEAN_MOTION_DDOT": "0",
    "FILE": "3939783",
    "TLE_LINE0": "0 SPOT 5",
    "TLE_LINE1": "1 27421U 02021A   23173.40521576  .00000480  00000-0  11453-3 0  9996",
    "TLE_LINE2": "2 27421  98.1392 236.2549 0134975  58.0852 303.3391 14.52661231104400",
    "OBJECT_ID": "2002-021A",
    "OBJECT_NUMBER": "27421",
    "SEMIMAJOR_AXIS": "7095.107",
    "PERIOD": "99.128",
    "APOGEE": "812.738",
    "PERIGEE": "621.206",
    "DECAYED": "0"
  },
  {
    "COMMENT": "GENERATED VIA SPACETRACK.ORG API",
    "ORIGINATOR": "18 SPCS",
    "NORAD_CAT_ID": "27421",
    "OBJECT_NAME": "SPOT 5",
    "OBJECT_TYPE": "PAYLOAD",
    "CLASSIFICATION_TYPE": "U",
    "INTLDES": "02021A",
    "EPOCH": "2023-06-22 17:59:26",
    "EPOCH_MICROSECONDS": "443104",
    "MEAN_MOTION": "14.52662033",
    "ECCENTRICITY": "0.0134962",
    "INCLINATION": "98.1391",
    "RA_OF_ASC_NODE": "236.5892",
    "ARG_OF_PERICENTER": "57.0322",
    "MEAN_ANOMALY": "304.3766",
    "EPHEMERIS_TYPE": "0",
    "ELEMENT_SET_NO": "999",
    "REV_AT_EPOCH": "10445",
    "BSTAR": "0.00012655",
    "MEAN_MOTION_DOT": "0.00000535",
    "MEAN_MOTION_DDOT": "0",
    "FILE": "3940099",
    "TLE_LINE0": "0 SPOT 5",
    "TLE_LINE1": "1 27421U 02021A   23173.74961161  .00000535  00000-0  12655-3 0  9997",
    "TLE_LINE2": "2 27421  98.1391 236.5892 0134962  57.0322 304.3766 14.52662033104453",
    "OBJECT_ID": "2002-021A",
    "OBJECT_NUMBER": "27421",
    "SEMIMAJOR_AXIS": "7095.104",
    "PERIOD": "99.128",
    "APOGEE": "812.726",
    "PERIGEE": "621.212",
    "DECAYED": "0"
  },
  {
    "COMMENT": "GENERATED VIA SPACETRACK.ORG API",
    "ORIGINATOR": "18 SPCS",
    "NORAD_CAT_ID": "27421",
    "OBJECT_NAME": "SPOT 5",
    "OBJECT_TYPE": "PAYLOAD",
    "CLASSIFICATION_TYPE": "U",
    "INTLDES": "02021A",
    "EPOCH": "2023-06-23 02:15:22",
    "EPOCH_MICROSECONDS": "240224",
    "MEAN_MOTION": "14.52662461",
    "ECCENTRICITY": "0.013494",
    "INCLINATION": "98.1391",
    "RA_OF_ASC_NODE": "236.9235",
    "ARG_OF_PERICENTER": "55.976",
    "MEAN_ANOMALY": "305.4167",
    "EPHEMERIS_TYPE": "0",
    "ELEMENT_SET_NO": "999",
    "REV_AT_EPOCH": "10450",
    "BSTAR": "0.00012592",
    "MEAN_MOTION_DOT": "0.00000532",
    "MEAN_MOTION_DDOT": "0",
    "FILE": "3940376",
    "TLE_LINE0": "0 SPOT 5",
    "TLE_LINE1": "1 27421U 02021A   23174.09400741  .00000532  00000-0  12592-3 0  9995",
    "TLE_LINE2": "2 27421  98.1391 236.9235 0134940  55.9760 305.4167 14.52662461104505",
    "OBJECT_ID": "2002-021A",
    "OBJECT_NUMBER": "27421",
    "SEMIMAJOR_AXIS": "7095.103",
    "PERIOD": "99.128",
    "APOGEE": "812.709",
    "PERIGEE": "621.227",
    "DECAYED": "0"
  },
  {
    "COMMENT": "GENERATED VIA SPACETRACK.ORG API",
    "ORIGINATOR": "18 SPCS",
    "NORAD_CAT_ID": "27421",
    "OBJECT_NAME": "SPOT 5",
    "OBJECT_TYPE": "PAYLOAD",
    "CLASSIFICATION_TYPE": "U",
    "INTLDES": "02021A",
    "EPOCH": "2023-06-23 03:54:33",
    "EPOCH_MICROSECONDS": "404832",
    "MEAN_MOTION": "14.52662523",
    "ECCENTRICITY": "0.0134931",
    "INCLINATION": "98.1391",
    "RA_OF_ASC_NODE": "236.9904",
    "ARG_OF_PERICENTER": "55.7639",
    "MEAN_ANOMALY": "305.6254",
    "EPHEMERIS_TYPE": "0",
    "ELEMENT_SET_NO": "999",
    "REV_AT_EPOCH": "10451",
    "BSTAR": "0.00012585",
    "MEAN_MOTION_DOT": "0.00000532",
    "MEAN_MOTION_DDOT": "0",
    "FILE": "3940645",
    "TLE_LINE0": "0 SPOT 5",
    "TLE_LINE1": "1 27421U 02021A   23174.16288663  .00000532  00000-0  12585-3 0  9992",
    "TLE_LINE2": "2 27421  98.1391 236.9904 0134931  55.7639 305.6254 14.52662523104510",
    "OBJECT_ID": "2002-021A",
    "OBJECT_NUMBER": "27421",
    "SEMIMAJOR_AXIS": "7095.103",
    "PERIOD": "99.128",
    "APOGEE": "812.703",
    "PERIGEE": "621.233",
    "DECAYED": "0"
  },
  {
    "COMMENT": "GENERATED VIA SPACETRACK.ORG API",
    "ORIGINATOR": "18 SPCS",
    "NORAD_CAT_ID": "27421",
    "OBJECT_NAME": "SPOT 5",
    "OBJECT_TYPE": "PAYLOAD",
    "CLASSIFICATION_TYPE": "U",
    "INTLDES": "02021A",
    "EPOCH": "2023-06-23 18:47:13",
    "EPOCH_MICROSECONDS": "785216",
    "MEAN_MOTION": "14.52663555",
    "ECCENTRICITY": "0.0134914",
    "INCLINATION": "98.139",
    "RA_OF_ASC_NODE": "237.5921",
    "ARG_OF_PERICENTER": "53.8661",
    "MEAN_ANOMALY": "307.4933",
    "EPHEMERIS_TYPE": "0",
    "ELEMENT_SET_NO": "999",
    "REV_AT_EPOCH": "10460",
    "BSTAR": "0.00013317",
    "MEAN_MOTION_DOT": "0.00000566",
    "MEAN_MOTION_DDOT": "0",
    "FILE": "3940944",
    "TLE_LINE0": "0 SPOT 5",
    "TLE_LINE1": "1 27421U 02021A   23174.78279844  .00000566  00000-0  13317-3 0  9992",
    "TLE_LINE2": "2 27421  98.1390 237.5921 0134914  53.8661 307.4933 14.52663555104600",
    "OBJECT_ID": "2002-021A",
    "OBJECT_NUMBER": "27421",
    "SEMIMAJOR_AXIS": "7095.099",
    "PERIOD": "99.128",
    "APOGEE": "812.687",
    "PERIGEE": "621.242",
    "DECAYED": "0"
  },
  {
    "COMMENT": "GENERATED VIA SPACETRACK.ORG API",
    "ORIGINATOR": "18 SPCS",
    "NORAD_CAT_ID": "27421",
    "OBJECT_NAME": "SPOT 5",
    "OBJECT_TYPE": "PAYLOAD",
    "CLASSIFICATION_TYPE": "U",
    "INTLDES": "02021A",
    "EPOCH": "2023-06-24 01:23:58",
    "EPOCH_MICROSECONDS": "376256",
    "MEAN_MOTION": "14.5266403",
    "ECCENTRICITY": "0.01349",
    "INCLINATION": "98.139",
    "RA_OF_ASC_NODE": "237.8595",
    "ARG_OF_PERICENTER": "53.0218",
    "MEAN_ANOMALY": "308.3239",
    "EPHEMERIS_TYPE": "0",
    "ELEMENT_SET_NO": "999",
    "REV_AT_EPOCH": "10464",
    "BSTAR": "0.00013639",
    "MEAN_MOTION_DOT": "0.0000058",
    "MEAN_MOTION_DDOT": "0",
    "FILE": "3941186",
    "TLE_LINE0": "0 SPOT 5",
    "TLE_LINE1": "1 27421U 02021A   23175.05831454  .00000580  00000-0  13639-3 0  9997",
    "TLE_LINE2": "2 27421  98.1390 237.8595 0134900  53.0218 308.3239 14.52664030104647",
    "OBJECT_ID": "2002-021A",
    "OBJECT_NUMBER": "27421",
    "SEMIMAJOR_AXIS": "7095.098",
    "PERIOD": "99.128",
    "APOGEE": "812.676",
    "PERIGEE": "621.250",
    "DECAYED": "0"
  }
]